      2.10          N: GNSS NAV DATA                        RINEX VERSION / TYPE
fic2rin                                 07/21/2018 00:36:17 PGM / RUN BY / DATE
                                                            END OF HEADER
 3 18  7 20 22  0  0.0 1.088143326342e-04 5.911715561524e-12 0.000000000000e+00
    5.900000000000e+01-2.571875000000e+01 4.786627953696e-09 2.764913544513e+00
   -1.419335603714e-06 1.563432859257e-03 6.681308150291e-06 5.153713422775e+03
    5.112000000000e+05-7.078051567078e-08-2.584733144190e+00-9.313225746155e-09
    9.614408945010e-01 2.495000000000e+02 5.028714144529e-01-8.101051727036e-09
   -7.143154683922e-11 1.000000000000e+00 2.010000000000e+03 0.000000000000e+00
    2.400000000000e+00 0.000000000000e+00 1.862645149231e-09 5.900000000000e+01
    5.040060000000e+05 4.000000000000e+00
 7 18  7 20 22  0  0.0 1.555853523314e-04-6.366462912410e-12 0.000000000000e+00
    9.800000000000e+01 8.400000000000e+01 4.394111603814e-09 3.035586862206e+00
    4.192814230919e-06 1.192452525720e-02 7.603317499161e-06 5.153656064987e+03
    5.112000000000e+05 2.235174179077e-08-4.734586740485e-01-1.098960638046e-07
    9.581806893975e-01 2.311875000000e+02-2.511184665652e+00-7.904614973228e-09
    8.643217167545e-11 1.000000000000e+00 2.010000000000e+03 0.000000000000e+00
    3.400000000000e+00 0.000000000000e+00-1.117587089539e-08 9.800000000000e+01
    5.040060000000e+05 4.000000000000e+00
 6 18  7 20 22  0  0.0 3.851405344903e-04-3.865352482535e-12 0.000000000000e+00
    8.200000000000e+01-8.531250000000e+00 4.466257466122e-09-2.402862881844e+00
   -3.483146429062e-07 1.046243356541e-03 8.489936590195e-06 5.153664999008e+03
    5.112000000000e+05-3.725290298462e-09 2.647688786523e+00 4.656612873077e-08
    9.718318392341e-01 2.219062500000e+02-1.054661574774e+00-7.944973797192e-09
    4.196603376804e-10 1.000000000000e+00 2.010000000000e+03 0.000000000000e+00
    2.400000000000e+00 0.000000000000e+00 4.656612873077e-09 8.200000000000e+01
    5.040060000000e+05 4.000000000000e+00
 4 18  7 20 22  0  0.0 8.088117465377e-05 3.637978807092e-12 0.000000000000e+00
    5.100000000000e+01 5.343750000000e+00 5.462370386795e-09 8.209539133286e-01
    2.160668373108e-07 9.799635503441e-03 4.487112164497e-06 5.153714067459e+03
    5.112000000000e+05-1.043081283569e-07 5.845755193797e-01 1.862645149231e-08
    9.787031361940e-01 3.029375000000e+02 9.337941580806e-01-8.214985044244e-09
   -1.210764718925e-10 1.000000000000e+00 2.010000000000e+03 0.000000000000e+00
    2.400000000000e+00 6.300000000000e+01-1.955777406693e-08 5.100000000000e+01
    5.040060000000e+05 4.000000000000e+00
22 18  7 20 22  0  0.0-4.640035331249e-04-1.193711796077e-11 0.000000000000e+00
    2.600000000000e+01-2.156250000000e+01 5.690237021212e-09-1.121000156648e+00
   -1.091510057449e-06 7.260140962899e-03 6.230548024178e-06 5.153758955002e+03
    5.112000000000e+05-2.011656761169e-07-2.646315657966e+00 5.587935447693e-08
    9.256083107300e-01 2.401875000000e+02-1.506231117623e+00-8.709648506106e-09
   -3.785871982478e-11 1.000000000000e+00 2.010000000000e+03 0.000000000000e+00
    2.400000000000e+00 0.000000000000e+00-1.816079020500e-08 2.600000000000e+01
    5.040060000000e+05 4.000000000000e+00
11 18  7 20 22  0  0.0-7.291170768440e-04 1.818989403546e-12 0.000000000000e+00
    1.050000000000e+02-1.603125000000e+01 5.649521039514e-09 3.039841308861e+00
   -9.946525096893e-07 1.699349971022e-02 7.951632142067e-06 5.153648448944e+03
    5.112000000000e+05 2.551823854446e-07 2.225478593419e+00 8.940696716309e-08
    9.060066304242e-01 1.919375000000e+02 1.785192079821e+00-8.352847929644e-09
    2.567964108870e-10 1.000000000000e+00 2.010000000000e+03 0.000000000000e+00
    3.400000000000e+00 0.000000000000e+00-1.210719347000e-08 1.050000000000e+02
    5.040060000000e+05 4.000000000000e+00
10 18  7 20 22  0  0.0 1.886077225208e-04-4.547473508865e-13 0.000000000000e+00
    8.000000000000e+01-2.621875000000e+01 4.931633993780e-09 1.647927188885e+00
   -1.266598701477e-06 3.634119755588e-03 6.198883056641e-06 5.153662370682e+03
    5.112000000000e+05 1.303851604462e-08-2.588156253999e+00 1.378357410431e-07
    9.615232055867e-01 2.619687500000e+02-2.762373156547e+00-8.279630594134e-09
   -3.893019302737e-11 1.000000000000e+00 2.010000000000e+03 0.000000000000e+00
    2.400000000000e+00 0.000000000000e+00 1.862645149231e-09 8.000000000000e+01
    5.040060000000e+05 4.000000000000e+00
 9 18  7 20 22  0  0.0 5.133082158864e-04-7.958078640513e-13 0.000000000000e+00
    1.000000000000e+02 5.375000000000e+00 4.703767359362e-09-1.371769680971e-01
    2.328306436539e-07 8.870069868863e-04 9.614974260330e-06 5.153582479477e+03
    5.112000000000e+05 2.048909664154e-08-1.551087790564e+00 1.490116119385e-08
    9.522960268148e-01 1.890312500000e+02 1.823886009933e+00-8.063550164945e-09
   -3.264421690552e-10 1.000000000000e+00 2.010000000000e+03 0.000000000000e+00
    2.400000000000e+00 0.000000000000e+00 9.313225746155e-10 1.000000000000e+02
    5.040060000000e+05 4.000000000000e+00
25 18  7 20 22  0  0.0-6.191530264914e-04-5.798028723802e-12 0.000000000000e+00
    1.800000000000e+01 1.184375000000e+01 4.296250384645e-09 1.989937031036e+00
    5.178153514862e-07 7.455879356712e-03 4.151836037636e-06 5.153616769791e+03
    5.112000000000e+05-1.210719347000e-07 5.593997276669e-01-4.656612873077e-08
    9.738924954001e-01 3.052500000000e+02 8.714359524739e-01-8.193555580192e-09
   -2.321525272275e-11 1.000000000000e+00 2.010000000000e+03 0.000000000000e+00
    2.400000000000e+00 0.000000000000e+00 5.587935447693e-09 1.800000000000e+01
    5.040060000000e+05 4.000000000000e+00
24 18  7 20 22  0  0.0-5.284277722239e-05-5.684341886081e-13 0.000000000000e+00
    2.900000000000e+01 7.906250000000e+01 4.755912388555e-09-2.263886531824e+00
    4.151836037636e-06 7.033950416371e-03 8.247792720795e-06 5.153641668320e+03
    5.112000000000e+05-1.303851604462e-08-5.340999712019e-01-7.450580596924e-08
    9.412193523983e-01 2.100000000000e+02 5.356688601410e-01-8.134267396316e-09
    1.278624688422e-10 1.000000000000e+00 2.010000000000e+03 0.000000000000e+00
    2.400000000000e+00 0.000000000000e+00 2.793967723846e-09 2.900000000000e+01
    5.040060000000e+05 4.000000000000e+00
15 18  7 20 22  0  0.0-3.503444604576e-04 7.958078640513e-13 0.000000000000e+00
    1.600000000000e+01-1.221875000000e+01 5.245218484404e-09-1.286024190241e+00
   -6.407499313354e-07 1.039646985009e-02 9.354203939438e-06 5.153778730392e+03
    5.112000000000e+05 2.682209014893e-07-1.623220370672e+00-6.891787052155e-08
    9.278440269880e-01 1.809062500000e+02 6.871227573752e-01-8.280344909602e-09
   -3.778728827795e-10 1.000000000000e+00 2.010000000000e+03 0.000000000000e+00
    2.400000000000e+00 0.000000000000e+00-1.071020960808e-08 1.600000000000e+01
    5.040060000000e+05 4.000000000000e+00
21 18  7 20 22  0  0.0-3.646574914455e-04 5.456968210638e-12 0.000000000000e+00
    2.000000000000e+01-1.900000000000e+01 4.895561062626e-09 1.912832782352e+00
   -1.208856701851e-06 2.434440609068e-02 7.912516593933e-06 5.153666810989e+03
    5.112000000000e+05 3.855675458908e-07 2.600275554520e+00-4.265457391739e-07
    9.447611063265e-01 2.167187500000e+02-1.542847039898e+00-7.927473068216e-09
    3.410856361573e-10 1.000000000000e+00 2.010000000000e+03 0.000000000000e+00
    2.400000000000e+00 0.000000000000e+00-1.024454832077e-08 2.000000000000e+01
    5.040060000000e+05 4.000000000000e+00
26 18  7 20 22  0  0.0-7.749721407890e-05 1.205080479849e-11 0.000000000000e+00
    2.100000000000e+01 8.656250000000e+00 4.657694011651e-09 1.465156077677e+00
    4.358589649200e-07 2.796037006192e-03 4.196539521217e-06 5.153692787170e+03
    5.112000000000e+05 1.303851604462e-08 5.364789305465e-01 1.862645149231e-08
    9.553980056247e-01 2.949375000000e+02 1.082766498599e-01-8.343561828555e-09
   -5.035924052165e-11 1.000000000000e+00 2.010000000000e+03 0.000000000000e+00
    2.400000000000e+00 0.000000000000e+00 7.450580596924e-09 2.100000000000e+01
    5.040060000000e+05 4.000000000000e+00
16 18  7 20 22  0  0.0 1.697475090623e-05-1.477928890381e-12 0.000000000000e+00
    1.400000000000e+01 2.437500000000e+00 3.932663811233e-09 5.579714383215e-01
    1.918524503708e-07 9.976533357985e-03 4.807487130165e-06 5.153667835236e+03
    5.112000000000e+05-1.490116119385e-08 6.387199505297e-01 1.676380634308e-07
    9.866712355031e-01 3.001250000000e+02 5.241312407186e-01-8.065693111350e-09
   -9.178953768839e-11 1.000000000000e+00 2.010000000000e+03 0.000000000000e+00
    2.400000000000e+00 0.000000000000e+00-1.071020960808e-08 1.400000000000e+01
    5.040060000000e+05 4.000000000000e+00
14 18  7 20 22  0  0.0-9.764358401299e-05 0.000000000000e+00 0.000000000000e+00
    1.060000000000e+02 6.750000000000e+00 4.578047836925e-09-7.162667875239e-01
    3.334134817123e-07 1.005856518168e-02 9.512528777122e-06 5.153608005524e+03
    5.112000000000e+05-7.636845111847e-08-1.460799419862e+00 1.620501279831e-07
    9.605410243320e-01 1.978125000000e+02-1.945106915911e+00-8.157125491304e-09
   -3.178703834345e-10 1.000000000000e+00 2.010000000000e+03 0.000000000000e+00
    2.400000000000e+00 0.000000000000e+00-9.778887033463e-09 1.060000000000e+02
    5.040060000000e+05 4.000000000000e+00
30 18  7 20 22  0  0.0 4.809396341443e-05-4.774847184308e-12 0.000000000000e+00
    1.500000000000e+01 8.281250000000e+01 4.836987194218e-09 3.060183810882e+00
    4.215165972710e-06 3.574996488169e-03 7.251277565956e-06 5.153716545105e+03
    5.112000000000e+05 7.450580596924e-09-4.406730502014e-01-2.421438694000e-08
    9.437756291175e-01 2.311562500000e+02-3.017777152680e+00-8.268558704374e-09
    5.500229106620e-11 1.000000000000e+00 2.010000000000e+03 0.000000000000e+00
    2.400000000000e+00 0.000000000000e+00 3.725290298462e-09 1.500000000000e+01
    5.040060000000e+05 4.000000000000e+00
